{
  "type": "FeatureCollection",
  "features": [
    {
      "type": "Feature",
      "properties": {
        "norad_id": 48859,
        "name": "GPS BIII-5  (PRN 11)",
        "group": "gnss",
        "lat": -51.093063655356836,
        "lon": -79.30929048145566,
        "alt_km": 20151.116289449576,
        "timestamp": "2025-12-11T22:43:47.511645+00:00",
        "meta_object_name": "GPS BIII-5  (PRN 11)",
        "meta_object_id": "2021-054A",
        "meta_epoch": "2025-12-08T04:14:32.423424",
        "meta_mean_motion": 2.00553627,
        "meta_eccentricity": 0.0024678,
        "meta_inclination": 55.2581,
        "meta_ra_of_asc_node": 340.1367,
        "meta_arg_of_pericenter": 233.3994,
        "meta_mean_anomaly": 212.8593,
        "meta_ephemeris_type": 0,
        "meta_classification_type": "U",
        "meta_norad_cat_id": 48859,
        "meta_element_set_no": 999,
        "meta_rev_at_epoch": 3292,
        "meta_bstar": 0,
        "meta_mean_motion_dot": -8.6e-07,
        "meta_mean_motion_ddot": 0,
        "tle_line1": "1 48859U 21054A   25342.17676416 -.00000086  00000+0  00000+0 0  9993",
        "tle_line2": "2 48859  55.2581 340.1367 0024678 233.3994 212.8593  2.00553627 32922"
      },
      "geometry": {
        "type": "Point",
        "coordinates": [
          -79.30929048145566,
          -51.093063655356836
        ]
      }
    },
    {
      "type": "Feature",
      "properties": {
        "norad_id": 49336,
        "name": "QZS-1R (QZSS/PRN 196)",
        "group": "gnss",
        "lat": 34.20738812852259,
        "lon": -161.65209721257645,
        "alt_km": 38739.09779864963,
        "timestamp": "2025-12-11T22:43:47.511657+00:00",
        "meta_object_name": "QZS-1R (QZSS/PRN 196)",
        "meta_object_id": "2021-096A",
        "meta_epoch": "2025-12-11T14:11:56.112288",
        "meta_mean_motion": 1.00257955,
        "meta_eccentricity": 0.0755122,
        "meta_inclination": 37.0772,
        "meta_ra_of_asc_node": 82.3759,
        "meta_arg_of_pericenter": 271.3113,
        "meta_mean_anomaly": 74.6905,
        "meta_ephemeris_type": 0,
        "meta_classification_type": "U",
        "meta_norad_cat_id": 49336,
        "meta_element_set_no": 999,
        "meta_rev_at_epoch": 1512,
        "meta_bstar": 0,
        "meta_mean_motion_dot": -2.7e-06,
        "meta_mean_motion_ddot": 0,
        "tle_line1": "1 49336U 21096A   25345.59162167 -.00000270  00000+0  00000+0 0  9997",
        "tle_line2": "2 49336  37.0772  82.3759 0755122 271.3113  74.6905  1.00257955 15121"
      },
      "geometry": {
        "type": "Point",
        "coordinates": [
          -161.65209721257645,
          34.20738812852259
        ]
      }
    },
    {
      "type": "Feature",
      "properties": {
        "norad_id": 49809,
        "name": "GSAT0223 (GALILEO 27)",
        "group": "gnss",
        "lat": 37.619618629970134,
        "lon": 16.509045301857306,
        "alt_km": 23229.88198441983,
        "timestamp": "2025-12-11T22:43:47.511669+00:00",
        "meta_object_name": "GSAT0223 (GALILEO 27)",
        "meta_object_id": "2021-116A",
        "meta_epoch": "2025-12-10T02:39:25.687008",
        "meta_mean_motion": 1.70475768,
        "meta_eccentricity": 0.000463,
        "meta_inclination": 57.2198,
        "meta_ra_of_asc_node": 346.7831,
        "meta_arg_of_pericenter": 251.6037,
        "meta_mean_anomaly": 107.9349,
        "meta_ephemeris_type": 0,
        "meta_classification_type": "U",
        "meta_norad_cat_id": 49809,
        "meta_element_set_no": 999,
        "meta_rev_at_epoch": 2495,
        "meta_bstar": 0,
        "meta_mean_motion_dot": -8.7e-07,
        "meta_mean_motion_ddot": 0,
        "tle_line1": "1 49809U 21116A   25344.11071397 -.00000087  00000+0  00000+0 0  9992",
        "tle_line2": "2 49809  57.2198 346.7831 0004630 251.6037 107.9349  1.70475768 24951"
      },
      "geometry": {
        "type": "Point",
        "coordinates": [
          16.509045301857306,
          37.619618629970134
        ]
      }
    },
    {
      "type": "Feature",
      "properties": {
        "norad_id": 49810,
        "name": "GSAT0224 (GALILEO 28)",
        "group": "gnss",
        "lat": 17.423424512477848,
        "lon": 155.06375591928054,
        "alt_km": 23221.433893022197,
        "timestamp": "2025-12-11T22:43:47.511681+00:00",
        "meta_object_name": "GSAT0224 (GALILEO 28)",
        "meta_object_id": "2021-116B",
        "meta_epoch": "2025-12-10T19:26:19.690368",
        "meta_mean_motion": 1.70475895,
        "meta_eccentricity": 0.000393,
        "meta_inclination": 57.2205,
        "meta_ra_of_asc_node": 346.7629,
        "meta_arg_of_pericenter": 256.2791,
        "meta_mean_anomaly": 284.9883,
        "meta_ephemeris_type": 0,
        "meta_classification_type": "U",
        "meta_norad_cat_id": 49810,
        "meta_element_set_no": 999,
        "meta_rev_at_epoch": 2499,
        "meta_bstar": 0,
        "meta_mean_motion_dot": -8.7e-07,
        "meta_mean_motion_ddot": 0,
        "tle_line1": "1 49810U 21116B   25344.80995012 -.00000087  00000+0  00000+0 0  9999",
        "tle_line2": "2 49810  57.2205 346.7629 0003930 256.2791 284.9883  1.70475895 24991"
      },
      "geometry": {
        "type": "Point",
        "coordinates": [
          155.06375591928054,
          17.423424512477848
        ]
      }
    },
    {
      "type": "Feature",
      "properties": {
        "norad_id": 52984,
        "name": "COSMOS 2557 (706K)",
        "group": "gnss",
        "lat": 48.47885013653845,
        "lon": -6.170820173590363,
        "alt_km": 19150.85388191708,
        "timestamp": "2025-12-11T22:43:47.511692+00:00",
        "meta_object_name": "COSMOS 2557 (706K)",
        "meta_object_id": "2022-075A",
        "meta_epoch": "2025-12-07T04:21:00.419904",
        "meta_mean_motion": 2.13101754,
        "meta_eccentricity": 0.00137049,
        "meta_inclination": 64.4129,
        "meta_ra_of_asc_node": 321.247,
        "meta_arg_of_pericenter": 276.9,
        "meta_mean_anomaly": 82.939,
        "meta_ephemeris_type": 0,
        "meta_classification_type": "U",
        "meta_norad_cat_id": 52984,
        "meta_element_set_no": 999,
        "meta_rev_at_epoch": 2662,
        "meta_bstar": 0,
        "meta_mean_motion_dot": -5.2e-07,
        "meta_mean_motion_ddot": 0,
        "tle_line1": "1 52984U 22075A   25341.18125486 -.00000052  00000+0  00000+0 0  9990",
        "tle_line2": "2 52984  64.4129 321.2470 0013704 276.9000  82.9390  2.13101754 26625"
      },
      "geometry": {
        "type": "Point",
        "coordinates": [
          -6.170820173590363,
          48.47885013653845
        ]
      }
    },
    {
      "type": "Feature",
      "properties": {
        "norad_id": 54031,
        "name": "COSMOS 2559 (707K)",
        "group": "gnss",
        "lat": -13.422863094441048,
        "lon": 147.73257442556653,
        "alt_km": 19102.04915956958,
        "timestamp": "2025-12-11T22:43:47.511707+00:00",
        "meta_object_name": "COSMOS 2559 (707K)",
        "meta_object_id": "2022-130A",
        "meta_epoch": "2025-12-11T05:22:14.904768",
        "meta_mean_motion": 2.13101319,
        "meta_eccentricity": 0.00118383,
        "meta_inclination": 64.3831,
        "meta_ra_of_asc_node": 321.1944,
        "meta_arg_of_pericenter": 192.4959,
        "meta_mean_anomaly": 167.4748,
        "meta_ephemeris_type": 0,
        "meta_classification_type": "U",
        "meta_norad_cat_id": 54031,
        "meta_element_set_no": 999,
        "meta_rev_at_epoch": 2468,
        "meta_bstar": 0,
        "meta_mean_motion_dot": -5.5e-07,
        "meta_mean_motion_ddot": 0,
        "tle_line1": "1 54031U 22130A   25345.22378362 -.00000055  00000+0  00000+0 0  9992",
        "tle_line2": "2 54031  64.3831 321.1944 0011838 192.4959 167.4748  2.13101319 24682"
      },
      "geometry": {
        "type": "Point",
        "coordinates": [
          147.73257442556653,
          -13.422863094441048
        ]
      }
    },
    {
      "type": "Feature",
      "properties": {
        "norad_id": 54377,
        "name": "COSMOS 2564 (761)",
        "group": "gnss",
        "lat": -40.19464268745899,
        "lon": 175.4169858439903,
        "alt_km": 19142.22855295284,
        "timestamp": "2025-12-11T22:43:47.511719+00:00",
        "meta_object_name": "COSMOS 2564 (761)",
        "meta_object_id": "2022-161A",
        "meta_epoch": "2025-12-11T12:53:38.736096",
        "meta_mean_motion": 2.13102051,
        "meta_eccentricity": 0.00086147,
        "meta_inclination": 64.7381,
        "meta_ra_of_asc_node": 198.9389,
        "meta_arg_of_pericenter": 204.933,
        "meta_mean_anomaly": 155.0953,
        "meta_ephemeris_type": 0,
        "meta_classification_type": "U",
        "meta_norad_cat_id": 54377,
        "meta_element_set_no": 999,
        "meta_rev_at_epoch": 2363,
        "meta_bstar": 0,
        "meta_mean_motion_dot": 5.6e-07,
        "meta_mean_motion_ddot": 0,
        "tle_line1": "1 54377U 22161A   25345.53725389  .00000056  00000+0  00000+0 0  9998",
        "tle_line2": "2 54377  64.7381 198.9389 0008614 204.9330 155.0953  2.13102051 23631"
      },
      "geometry": {
        "type": "Point",
        "coordinates": [
          175.4169858439903,
          -40.19464268745899
        ]
      }
    }
  ]
}